start=new Date('2022-08-29T00:00:00.000Z').valueOf();
sats=[{"TLE_LINE2":"2 52615  53.2144 309.6395 0001537  66.8205 336.4474 15.08855017  1303","OBJECT_TYPE":"PAYLOAD","COUNTRY_CODE":"US","MEAN_MOTION_DDOT":"0.0000000000000","ELEMENT_SET_NO":"999","GP_ID":"211214999","SEMIMAJOR_AXIS":"6917.834","MEAN_MOTION_DOT":"-0.00028580","ECCENTRICITY":"0.00015370","CENTER_NAME":"EARTH","TLE_LINE1":"1 52615U 22052T   22240.91667824 -.00028580  00000-0 -17840-2 0  9990","APOAPSIS":"540.763","MEAN_ANOMALY":"336.4474","MEAN_MOTION":"15.08855017","EPHEMERIS_TYPE":"0","TIME_SYSTEM":"UTC","RA_OF_ASC_NODE":"309.6395","MEAN_ELEMENT_THEORY":"SGP4","BSTAR":"-0.00178400000000","FILE":"3550014","PERIAPSIS":"538.636","NORAD_CAT_ID":"52615","REV_AT_EPOCH":"130","INCLINATION":"53.2144","OBJECT_ID":"2022-052T","LAUNCH_DATE":"2022-05-14","REF_FRAME":"TEME","OBJECT_NAME":"STARLINK-4011","CLASSIFICATION_TYPE":"U","SITE":"AFETR","RCS_SIZE":"LARGE","PERIOD":"95.437","EPOCH":"2022-08-28T22:00:00.999936","ARG_OF_PERICENTER":"66.8205","DECAY_DATE":null},{"CLASSIFICATION_TYPE":"U","OBJECT_NAME":"STARLINK-4015","PERIOD":"95.438","RCS_SIZE":"LARGE","SITE":"AFETR","DECAY_DATE":null,"ARG_OF_PERICENTER":"59.0729","EPOCH":"2022-08-28T22:00:00.999936","REV_AT_EPOCH":"130","NORAD_CAT_ID":"52616","OBJECT_ID":"2022-052U","INCLINATION":"53.2155","LAUNCH_DATE":"2022-05-14","REF_FRAME":"TEME","TLE_LINE1":"1 52616U 22052U   22240.91667824  .00006027  00000-0  39652-3 0  9997","APOAPSIS":"540.749","CENTER_NAME":"EARTH","MEAN_ANOMALY":"286.7147","MEAN_ELEMENT_THEORY":"SGP4","BSTAR":"0.00039652000000","RA_OF_ASC_NODE":"294.6499","TIME_SYSTEM":"UTC","EPHEMERIS_TYPE":"0","MEAN_MOTION":"15.08831595","FILE":"3550014","PERIAPSIS":"538.794","MEAN_MOTION_DDOT":"0.0000000000000","COUNTRY_CODE":"US","OBJECT_TYPE":"PAYLOAD","TLE_LINE2":"2 52616  53.2155 294.6499 0001413  59.0729 286.7147 15.08831595  1301","ELEMENT_SET_NO":"999","GP_ID":"211215868","ECCENTRICITY":"0.00014130","MEAN_MOTION_DOT":"0.00006027","SEMIMAJOR_AXIS":"6917.906"},{"MEAN_ANOMALY":"187.6533","CENTER_NAME":"EARTH","APOAPSIS":"545.581","TLE_LINE1":"1 52617U 22052V   22240.91667824  .00004848  00000-0  33691-3 0  9994","FILE":"3550014","PERIAPSIS":"543.939","EPHEMERIS_TYPE":"0","TIME_SYSTEM":"UTC","MEAN_MOTION":"15.07200959","BSTAR":"0.00033691000000","MEAN_ELEMENT_THEORY":"SGP4","RA_OF_ASC_NODE":"294.2095","ELEMENT_SET_NO":"999","TLE_LINE2":"2 52617  53.2130 294.2095 0001186  63.4307 187.6533 15.07200959  1302","MEAN_MOTION_DDOT":"0.0000000000000","COUNTRY_CODE":"US","OBJECT_TYPE":"PAYLOAD","MEAN_MOTION_DOT":"0.00004848","SEMIMAJOR_AXIS":"6922.895","ECCENTRICITY":"0.00011860","GP_ID":"211215272","OBJECT_NAME":"STARLINK-3996","CLASSIFICATION_TYPE":"U","ARG_OF_PERICENTER":"63.4307","EPOCH":"2022-08-28T22:00:00.999936","DECAY_DATE":null,"SITE":"AFETR","PERIOD":"95.541","RCS_SIZE":"LARGE","INCLINATION":"53.2130","OBJECT_ID":"2022-052V","REV_AT_EPOCH":"130","NORAD_CAT_ID":"52617","REF_FRAME":"TEME","LAUNCH_DATE":"2022-05-14"},{"REF_FRAME":"TEME","LAUNCH_DATE":"2022-05-14","INCLINATION":"53.2167","OBJECT_ID":"2022-052W","NORAD_CAT_ID":"52618","REV_AT_EPOCH":"130","EPOCH":"2022-08-28T22:00:00.999936","ARG_OF_PERICENTER":"72.1447","DECAY_DATE":null,"SITE":"AFETR","RCS_SIZE":"LARGE","PERIOD":"95.438","OBJECT_NAME":"STARLINK-3983","CLASSIFICATION_TYPE":"U","SEMIMAJOR_AXIS":"6917.913","MEAN_MOTION_DOT":"0.00004742","ECCENTRICITY":"0.00014490","GP_ID":"211215562","ELEMENT_SET_NO":"999","TLE_LINE2":"2 52618  53.2167 294.6530 0001449  72.1447 293.6339 15.08829357  1307","COUNTRY_CODE":"US","OBJECT_TYPE":"PAYLOAD","MEAN_MOTION_DDOT":"0.0000000000000","PERIAPSIS":"538.776","FILE":"3550014","MEAN_MOTION":"15.08829357","EPHEMERIS_TYPE":"0","TIME_SYSTEM":"UTC","RA_OF_ASC_NODE":"294.6530","BSTAR":"0.00031592000000","MEAN_ELEMENT_THEORY":"SGP4","MEAN_ANOMALY":"293.6339","CENTER_NAME":"EARTH","TLE_LINE1":"1 52618U 22052W   22240.91667824  .00004742  00000-0  31592-3 0  9996","APOAPSIS":"540.780"},{"REF_FRAME":"TEME","LAUNCH_DATE":"2022-05-14","OBJECT_ID":"2022-052X","INCLINATION":"53.2168","NORAD_CAT_ID":"52619","REV_AT_EPOCH":"130","DECAY_DATE":null,"EPOCH":"2022-08-28T22:00:00.999936","ARG_OF_PERICENTER":"55.4261","RCS_SIZE":"LARGE","PERIOD":"95.437","SITE":"AFETR","CLASSIFICATION_TYPE":"U","OBJECT_NAME":"STARLINK-3741","ECCENTRICITY":"0.00015680","SEMIMAJOR_AXIS":"6917.872","MEAN_MOTION_DOT":"-0.00002047","GP_ID":"211215417","ELEMENT_SET_NO":"999","OBJECT_TYPE":"PAYLOAD","COUNTRY_CODE":"US","MEAN_MOTION_DDOT":"0.0000000000000","TLE_LINE2":"2 52619  53.2168 294.6512 0001568  55.4261 345.1462 15.08842844  1305","FILE":"3550014","PERIAPSIS":"538.652","RA_OF_ASC_NODE":"294.6512","MEAN_ELEMENT_THEORY":"SGP4","BSTAR":"-0.00011052000000","MEAN_MOTION":"15.08842844","EPHEMERIS_TYPE":"0","TIME_SYSTEM":"UTC","MEAN_ANOMALY":"345.1462","TLE_LINE1":"1 52619U 22052X   22240.91667824 -.00002047  00000-0 -11052-3 0  9994","APOAPSIS":"540.821","CENTER_NAME":"EARTH"},{"CENTER_NAME":"EARTH","TLE_LINE1":"1 52620U 22052Y   22240.91667824 -.00015632  00000-0 -96592-3 0  9992","APOAPSIS":"540.667","MEAN_ANOMALY":"3.3589","MEAN_MOTION":"15.08849872","TIME_SYSTEM":"UTC","EPHEMERIS_TYPE":"0","RA_OF_ASC_NODE":"309.6463","BSTAR":"-0.00096592000000","MEAN_ELEMENT_THEORY":"SGP4","FILE":"3550014","PERIAPSIS":"538.763","TLE_LINE2":"2 52620  53.2159 309.6463 0001376  59.8272   3.3589 15.08849872  1307","OBJECT_TYPE":"PAYLOAD","COUNTRY_CODE":"US","MEAN_MOTION_DDOT":"0.0000000000000","ELEMENT_SET_NO":"999","GP_ID":"211215705","SEMIMAJOR_AXIS":"6917.850","MEAN_MOTION_DOT":"-0.00015632","ECCENTRICITY":"0.00013760","OBJECT_NAME":"STARLINK-3975","CLASSIFICATION_TYPE":"U","SITE":"AFETR","RCS_SIZE":"LARGE","PERIOD":"95.437","EPOCH":"2022-08-28T22:00:00.999936","ARG_OF_PERICENTER":"59.8272","DECAY_DATE":null,"NORAD_CAT_ID":"52620","REV_AT_EPOCH":"130","INCLINATION":"53.2159","OBJECT_ID":"2022-052Y","LAUNCH_DATE":"2022-05-14","REF_FRAME":"TEME"},{"REV_AT_EPOCH":"130","NORAD_CAT_ID":"52621","OBJECT_ID":"2022-052Z","INCLINATION":"53.2167","LAUNCH_DATE":"2022-05-14","REF_FRAME":"TEME","CLASSIFICATION_TYPE":"U","OBJECT_NAME":"STARLINK-3984","PERIOD":"95.437","RCS_SIZE":"LARGE","SITE":"AFETR","DECAY_DATE":null,"ARG_OF_PERICENTER":"53.7214","EPOCH":"2022-08-28T22:00:00.999936","MEAN_MOTION_DDOT":"0.0000000000000","OBJECT_TYPE":"PAYLOAD","COUNTRY_CODE":"US","TLE_LINE2":"2 52621  53.2167 294.6542 0001611  53.7214  32.0664 15.08849126  1304","ELEMENT_SET_NO":"999","GP_ID":"211214854","ECCENTRICITY":"0.00016110","MEAN_MOTION_DOT":"-0.00042370","SEMIMAJOR_AXIS":"6917.852","TLE_LINE1":"1 52621U 22052Z   22240.91667824 -.00042370  00000-0 -26591-2 0  9993","APOAPSIS":"540.832","CENTER_NAME":"EARTH","MEAN_ANOMALY":"32.0664","BSTAR":"-0.00265910000000","MEAN_ELEMENT_THEORY":"SGP4","RA_OF_ASC_NODE":"294.6542","TIME_SYSTEM":"UTC","EPHEMERIS_TYPE":"0","MEAN_MOTION":"15.08849126","FILE":"3550014","PERIAPSIS":"538.603"},{"ARG_OF_PERICENTER":"77.7237","EPOCH":"2022-08-28T22:00:00.999936","DECAY_DATE":null,"SITE":"AFETR","PERIOD":"95.437","RCS_SIZE":"LARGE","OBJECT_NAME":"STARLINK-4008","CLASSIFICATION_TYPE":"U","REF_FRAME":"TEME","LAUNCH_DATE":"2022-05-14","INCLINATION":"53.2180","OBJECT_ID":"2022-052AA","REV_AT_EPOCH":"130","NORAD_CAT_ID":"52622","PERIAPSIS":"538.805","FILE":"3550014","EPHEMERIS_TYPE":"0","TIME_SYSTEM":"UTC","MEAN_MOTION":"15.08852884","MEAN_ELEMENT_THEORY":"SGP4","BSTAR":"-0.00308190000000","RA_OF_ASC_NODE":"309.6409","MEAN_ANOMALY":"185.5332","CENTER_NAME":"EARTH","APOAPSIS":"540.607","TLE_LINE1":"1 52622U 22052AA  22240.91667824 -.00049019  00000-0 -30819-2 0  9999","MEAN_MOTION_DOT":"-0.00049019","SEMIMAJOR_AXIS":"6917.841","ECCENTRICITY":"0.00013020","GP_ID":"211215146","ELEMENT_SET_NO":"999","TLE_LINE2":"2 52622  53.2180 309.6409 0001302  77.7237 185.5332 15.08852884  1308","MEAN_MOTION_DDOT":"0.0000000000000","COUNTRY_CODE":"US","OBJECT_TYPE":"PAYLOAD"},{"REF_FRAME":"TEME","LAUNCH_DATE":"2022-05-14","OBJECT_ID":"2022-052AB","INCLINATION":"53.2166","REV_AT_EPOCH":"130","NORAD_CAT_ID":"52623","DECAY_DATE":null,"ARG_OF_PERICENTER":"48.5310","EPOCH":"2022-08-28T22:00:00.999936","PERIOD":"95.439","RCS_SIZE":"LARGE","SITE":"AFETR","CLASSIFICATION_TYPE":"U","OBJECT_NAME":"STARLINK-3986","ECCENTRICITY":"0.00017010","MEAN_MOTION_DOT":"-0.00009352","SEMIMAJOR_AXIS":"6917.928","GP_ID":"211215000","ELEMENT_SET_NO":"999","MEAN_MOTION_DDOT":"0.0000000000000","COUNTRY_CODE":"US","OBJECT_TYPE":"PAYLOAD","TLE_LINE2":"2 52623  53.2166 294.6537 0001701  48.5310  57.2585 15.08824585  1301","PERIAPSIS":"538.616","FILE":"3550014","MEAN_ELEMENT_THEORY":"SGP4","BSTAR":"-0.00057049000000","RA_OF_ASC_NODE":"294.6537","EPHEMERIS_TYPE":"0","TIME_SYSTEM":"UTC","MEAN_MOTION":"15.08824585","MEAN_ANOMALY":"57.2585","APOAPSIS":"540.969","TLE_LINE1":"1 52623U 22052AB  22240.91667824 -.00009352  00000-0 -57049-3 0  9991","CENTER_NAME":"EARTH"},{"NORAD_CAT_ID":"52624","REV_AT_EPOCH":"130","INCLINATION":"53.2170","OBJECT_ID":"2022-052AC","LAUNCH_DATE":"2022-05-14","REF_FRAME":"TEME","OBJECT_NAME":"STARLINK-4009","CLASSIFICATION_TYPE":"U","SITE":"AFETR","RCS_SIZE":"LARGE","PERIOD":"95.438","EPOCH":"2022-08-28T22:00:00.999936","ARG_OF_PERICENTER":"62.6508","DECAY_DATE":null,"TLE_LINE2":"2 52624  53.2170 294.6518 0001524  62.6508 343.1090 15.08837068  1303","OBJECT_TYPE":"PAYLOAD","COUNTRY_CODE":"US","MEAN_MOTION_DDOT":"0.0000000000000","ELEMENT_SET_NO":"999","GP_ID":"211215869","SEMIMAJOR_AXIS":"6917.889","MEAN_MOTION_DOT":"0.00004921","ECCENTRICITY":"0.00015240","CENTER_NAME":"EARTH","TLE_LINE1":"1 52624U 22052AC  22240.91667824  .00004921  00000-0  32706-3 0  9990","APOAPSIS":"540.809","MEAN_ANOMALY":"343.1090","MEAN_MOTION":"15.08837068","TIME_SYSTEM":"UTC","EPHEMERIS_TYPE":"0","RA_OF_ASC_NODE":"294.6518","BSTAR":"0.00032706000000","MEAN_ELEMENT_THEORY":"SGP4","PERIAPSIS":"538.700","FILE":"3550014"}];
